{
  "type": "FeatureCollection",
  "features": [
    {
      "type": "Feature",
      "geometry": {
        "type": "Point",
        "coordinates": [
          4.485796166,
          46.904886275
        ]
      },
      "properties": {
        "name": "Allée du Champ de Foire / Place du Champ de Foire",
        "context": "Saint-Émiland, Saône-et-Loire",
        "citycode": "71409",
        "depcode": "71"
      }
    },
    {
      "type": "Feature",
      "geometry": {
        "type": "Point",
        "coordinates": [
          4.485770762,
          46.904938217
        ]
      },
      "properties": {
        "name": "Allée du Champ de Foire / Route d'Épinac D145",
        "context": "Saint-Émiland, Saône-et-Loire",
        "citycode": "71409",
        "depcode": "71"
      }
    },
    {
      "type": "Feature",
      "geometry": {
        "type": "Point",
        "coordinates": [
          4.480547573,
          46.904988882
        ]
      },
      "properties": {
        "name": "Avenue du Général de Gaulle D978 / Le Pont du Roi",
        "context": "Saint-Émiland, Saône-et-Loire",
        "citycode": "71409",
        "depcode": "71"
      }
    },
    {
      "type": "Feature",
      "geometry": {
        "type": "Point",
        "coordinates": [
          4.485587419,
          46.903758382
        ]
      },
      "properties": {
        "name": "Avenue du Général de Gaulle D978 / Place du Champ de Foire",
        "context": "Saint-Émiland, Saône-et-Loire",
        "citycode": "71409",
        "depcode": "71"
      }
    },
    {
      "type": "Feature",
      "geometry": {
        "type": "Point",
        "coordinates": [
          4.4805058,
          46.90499675
        ]
      },
      "properties": {
        "name": "Avenue du Général de Gaulle D978 / Route d'Autun D978",
        "context": "Saint-Émiland, Saône-et-Loire",
        "citycode": "71409",
        "depcode": "71"
      }
    },
    {
      "type": "Feature",
      "geometry": {
        "type": "Point",
        "coordinates": [
          4.482968314,
          46.904447859
        ]
      },
      "properties": {
        "name": "Avenue du Général de Gaulle D978 / Route d'Épinac D145",
        "context": "Saint-Émiland, Saône-et-Loire",
        "citycode": "71409",
        "depcode": "71"
      }
    },
    {
      "type": "Feature",
      "geometry": {
        "type": "Point",
        "coordinates": [
          4.482958737,
          46.904436805
        ]
      },
      "properties": {
        "name": "Avenue du Général de Gaulle D978 / Route du Creusot D43",
        "context": "Saint-Émiland, Saône-et-Loire",
        "citycode": "71409",
        "depcode": "71"
      }
    },
    {
      "type": "Feature",
      "geometry": {
        "type": "Point",
        "coordinates": [
          4.485594956,
          46.903728818
        ]
      },
      "properties": {
        "name": "Avenue du Général de Gaulle D978 / Rue des Chênes",
        "context": "Saint-Émiland, Saône-et-Loire",
        "citycode": "71409",
        "depcode": "71"
      }
    },
    {
      "type": "Feature",
      "geometry": {
        "type": "Point",
        "coordinates": [
          4.477111449,
          46.9057486
        ]
      },
      "properties": {
        "name": "Chemin d'Écharvy / Route d'Autun D978",
        "context": "Saint-Émiland, Saône-et-Loire",
        "citycode": "71409",
        "depcode": "71"
      }
    },
    {
      "type": "Feature",
      "geometry": {
        "type": "Point",
        "coordinates": [
          4.469421969,
          46.87300547
        ]
      },
      "properties": {
        "name": "Chemin de Valsantin / Route du Creusot D43",
        "context": "Saint-Émiland, Saône-et-Loire",
        "citycode": "71409",
        "depcode": "71"
      }
    },
    {
      "type": "Feature",
      "geometry": {
        "type": "Point",
        "coordinates": [
          4.496704818,
          46.900185528
        ]
      },
      "properties": {
        "name": "Chemin du Pont Allard / Route de Chalon D978",
        "context": "Saint-Émiland, Saône-et-Loire",
        "citycode": "71409",
        "depcode": "71"
      }
    },
    {
      "type": "Feature",
      "geometry": {
        "type": "Point",
        "coordinates": [
          4.477088214,
          46.905763113
        ]
      },
      "properties": {
        "name": "Route d'Autun D978 / Chemin d'Écharvy",
        "context": "Saint-Émiland, Saône-et-Loire",
        "citycode": "71409",
        "depcode": "71"
      }
    },
    {
      "type": "Feature",
      "geometry": {
        "type": "Point",
        "coordinates": [
          4.468607589,
          46.907987062
        ]
      },
      "properties": {
        "name": "Route d'Autun D978 / Chemin de la Croix de la Madeleine",
        "context": "Saint-Émiland, Saône-et-Loire",
        "citycode": "71409",
        "depcode": "71"
      }
    },
    {
      "type": "Feature",
      "geometry": {
        "type": "Point",
        "coordinates": [
          4.448493418,
          46.915049105
        ]
      },
      "properties": {
        "name": "Route d'Autun D978 / Chemin de la Forêt",
        "context": "Saint-Émiland, Saône-et-Loire",
        "citycode": "71409",
        "depcode": "71"
      }
    },
    {
      "type": "Feature",
      "geometry": {
        "type": "Point",
        "coordinates": [
          4.464011721,
          46.909626717
        ]
      },
      "properties": {
        "name": "Route d'Autun D978 / Chemin de la Justice",
        "context": "Saint-Émiland, Saône-et-Loire",
        "citycode": "71409",
        "depcode": "71"
      }
    },
    {
      "type": "Feature",
      "geometry": {
        "type": "Point",
        "coordinates": [
          4.453213806,
          46.913328452
        ]
      },
      "properties": {
        "name": "Route d'Autun D978 / Chemin du Bois Perriaux",
        "context": "Saint-Émiland, Saône-et-Loire",
        "citycode": "71409",
        "depcode": "71"
      }
    },
    {
      "type": "Feature",
      "geometry": {
        "type": "Point",
        "coordinates": [
          4.457493194,
          46.911819092
        ]
      },
      "properties": {
        "name": "Route d'Autun D978 / Chemin du Lavoir",
        "context": "Saint-Émiland, Saône-et-Loire",
        "citycode": "71409",
        "depcode": "71"
      }
    },
    {
      "type": "Feature",
      "geometry": {
        "type": "Point",
        "coordinates": [
          4.430468867,
          46.921286063
        ]
      },
      "properties": {
        "name": "Route d'Autun D978 / Chemin du Pré Buisson",
        "context": "Saint-Émiland, Saône-et-Loire",
        "citycode": "71409",
        "depcode": "71"
      }
    },
    {
      "type": "Feature",
      "geometry": {
        "type": "Point",
        "coordinates": [
          4.427400757,
          46.922709659
        ]
      },
      "properties": {
        "name": "Route d'Autun D978 / La Charbonnière",
        "context": "Saint-Émiland, Saône-et-Loire",
        "citycode": "71409",
        "depcode": "71"
      }
    },
    {
      "type": "Feature",
      "geometry": {
        "type": "Point",
        "coordinates": [
          4.480455193,
          46.905006682
        ]
      },
      "properties": {
        "name": "Route d'Autun D978 / Le Pont du Roi",
        "context": "Saint-Émiland, Saône-et-Loire",
        "citycode": "71409",
        "depcode": "71"
      }
    },
    {
      "type": "Feature",
      "geometry": {
        "type": "Point",
        "coordinates": [
          4.467589895,
          46.908349216
        ]
      },
      "properties": {
        "name": "Route d'Autun D978 / Route d’Antully D264",
        "context": "Saint-Émiland, Saône-et-Loire",
        "citycode": "71409",
        "depcode": "71"
      }
    },
    {
      "type": "Feature",
      "geometry": {
        "type": "Point",
        "coordinates": [
          4.427593045,
          46.922405685
        ]
      },
      "properties": {
        "name": "Route d'Autun D978 / Rue de l'Ouche Arnay",
        "context": "Saint-Émiland, Saône-et-Loire",
        "citycode": "71409",
        "depcode": "71"
      }
    },
    {
      "type": "Feature",
      "geometry": {
        "type": "Point",
        "coordinates": [
          4.485755708,
          46.904932695
        ]
      },
      "properties": {
        "name": "Route d'Épinac D145 / Place du Champ de Foire",
        "context": "Saint-Émiland, Saône-et-Loire",
        "citycode": "71409",
        "depcode": "71"
      }
    },
    {
      "type": "Feature",
      "geometry": {
        "type": "Point",
        "coordinates": [
          4.482963884,
          46.904442605
        ]
      },
      "properties": {
        "name": "Route d'Épinac D145 / Route du Creusot D43",
        "context": "Saint-Émiland, Saône-et-Loire",
        "citycode": "71409",
        "depcode": "71"
      }
    },
    {
      "type": "Feature",
      "geometry": {
        "type": "Point",
        "coordinates": [
          4.481111569,
          46.897938106
        ]
      },
      "properties": {
        "name": "Route de Saint-Pierre D131 / Route du Creusot D43",
        "context": "Saint-Émiland, Saône-et-Loire",
        "citycode": "71409",
        "depcode": "71"
      }
    },
    {
      "type": "Feature",
      "geometry": {
        "type": "Point",
        "coordinates": [
          4.481693726,
          46.900873083
        ]
      },
      "properties": {
        "name": "Route du Creusot D43 / Rue de la Troche",
        "context": "Saint-Émiland, Saône-et-Loire",
        "citycode": "71409",
        "depcode": "71"
      }
    },
    {
      "type": "Feature",
      "geometry": {
        "type": "Point",
        "coordinates": [
          4.482601128,
          46.903866001
        ]
      },
      "properties": {
        "name": "Route du Creusot D43 / Rue des Chênes",
        "context": "Saint-Émiland, Saône-et-Loire",
        "citycode": "71409",
        "depcode": "71"
      }
    },
    {
      "type": "Feature",
      "geometry": {
        "type": "Point",
        "coordinates": [
          4.485622877,
          46.904340319
        ]
      },
      "properties": {
        "name": "Rue de l'Oratoire / Place du Champ de Foire",
        "context": "Saint-Émiland, Saône-et-Loire",
        "citycode": "71409",
        "depcode": "71"
      }
    },
    {
      "type": "Feature",
      "geometry": {
        "type": "Point",
        "coordinates": [
          4.48488287,
          46.905050634
        ]
      },
      "properties": {
        "name": "Rue de l'Oratoire / Route d'Épinac D145",
        "context": "Saint-Émiland, Saône-et-Loire",
        "citycode": "71409",
        "depcode": "71"
      }
    },
    {
      "type": "Feature",
      "geometry": {
        "type": "Point",
        "coordinates": [
          4.461499941,
          46.903685788
        ]
      },
      "properties": {
        "name": "Rue de la Troche / Chemin du Bois Thiau",
        "context": "Saint-Émiland, Saône-et-Loire",
        "citycode": "71409",
        "depcode": "71"
      }
    },
    {
      "type": "Feature",
      "geometry": {
        "type": "Point",
        "coordinates": [
          4.474322107,
          46.899809028
        ]
      },
      "properties": {
        "name": "Rue de la Troche / Chemin du Clos",
        "context": "Saint-Émiland, Saône-et-Loire",
        "citycode": "71409",
        "depcode": "71"
      }
    },
    {
      "type": "Feature",
      "geometry": {
        "type": "Point",
        "coordinates": [
          4.479447393,
          46.900995541
        ]
      },
      "properties": {
        "name": "Rue de la Troche / Le Pont du Roi",
        "context": "Saint-Émiland, Saône-et-Loire",
        "citycode": "71409",
        "depcode": "71"
      }
    },
    {
      "type": "Feature",
      "geometry": {
        "type": "Point",
        "coordinates": [
          4.460761606,
          46.907436535
        ]
      },
      "properties": {
        "name": "Rue de la Troche / Route d’Antully D264",
        "context": "Saint-Émiland, Saône-et-Loire",
        "citycode": "71409",
        "depcode": "71"
      }
    },
    {
      "type": "Feature",
      "geometry": {
        "type": "Point",
        "coordinates": [
          4.481697658,
          46.900860486
        ]
      },
      "properties": {
        "name": "Rue de la Troche / Route du Creusot D43",
        "context": "Saint-Émiland, Saône-et-Loire",
        "citycode": "71409",
        "depcode": "71"
      }
    },
    {
      "type": "Feature",
      "geometry": {
        "type": "Point",
        "coordinates": [
          4.483448913,
          46.903374563
        ]
      },
      "properties": {
        "name": "Rue des Chênes / Chemin de l'École",
        "context": "Saint-Émiland, Saône-et-Loire",
        "citycode": "71409",
        "depcode": "71"
      }
    },
    {
      "type": "Feature",
      "geometry": {
        "type": "Point",
        "coordinates": [
          4.485602631,
          46.903739545
        ]
      },
      "properties": {
        "name": "Rue des Chênes / Place du Champ de Foire",
        "context": "Saint-Émiland, Saône-et-Loire",
        "citycode": "71409",
        "depcode": "71"
      }
    },
    {
      "type": "Feature",
      "geometry": {
        "type": "Point",
        "coordinates": [
          4.485306128,
          46.902981047
        ]
      },
      "properties": {
        "name": "Rue des Chênes / Rue du Champ des Chênes",
        "context": "Saint-Émiland, Saône-et-Loire",
        "citycode": "71409",
        "depcode": "71"
      }
    },
    {
      "type": "Feature",
      "geometry": {
        "type": "Point",
        "coordinates": [
          4.483517677,
          46.904993344
        ]
      },
      "properties": {
        "name": "Rue sous le Puits / Route d'Épinac D145",
        "context": "Saint-Émiland, Saône-et-Loire",
        "citycode": "71409",
        "depcode": "71"
      }
    }
  ]
}